NOAA 15                 
1 25338U 98030A   25126.17293591  .00000327  00000+0  15211-3 0  9998
2 25338  98.5378 152.1285 0011521  99.9137 260.3345 14.26959392403498
DMSP 5D-3 F16 (USA 172) 
1 28054U 03048A   25126.20118240  .00000170  00000+0  11290-3 0  9991
2 28054  99.0146 141.7238 0006571 211.2049 226.4303 14.14347602111931
NOAA 18                 
1 28654U 05018A   25126.22259714  .00000293  00000+0  17879-3 0  9995
2 28654  98.8421 206.0848 0013528 223.2053 136.8059 14.13592221 28892
METEOSAT-9 (MSG-2)      
1 28912U 05049B   25126.00250859  .00000121  00000+0  00000+0 0  9997
2 28912   8.4345  58.0325 0000995 358.8502 213.9450  1.00278931 70995
EWS-G1 (GOES 13)        
1 29155U 06018A   25125.42072289  .00000059  00000+0  00000+0 0  9998
2 29155   3.4729  81.3827 0064166 264.9182  94.2885  0.98816422 69352
DMSP 5D-3 F17 (USA 191) 
1 29522U 06050A   25126.20140460  .00000210  00000+0  13124-3 0  9990
2 29522  98.7398 136.1265 0010962 133.3875 226.8214 14.14825632954861
FENGYUN 3A              
1 32958U 08026A   25125.84463716  .00000196  00000+0  11349-3 0  9993
2 32958  98.6456  70.3944 0007900 216.3621 143.7019 14.19433311877615
NOAA 19                 
1 33591U 09005A   25126.15269049  .00000250  00000+0  15729-3 0  9990
2 33591  98.9989 190.6611 0014858 101.1747 259.1096 14.13356229837248
GOES 14                 
1 35491U 09033A   25126.20808865 -.00000073  00000+0  00000+0 0  9999
2 35491   0.6283  88.4013 0000831  43.4609  58.9771  1.00271685 58072
DMSP 5D-3 F18 (USA 210) 
1 35951U 09057A   25126.12954114  .00000423  00000+0  24305-3 0  9992
2 35951  98.8577 103.9803 0010619 334.2952  25.7692 14.14608710802012
EWS-G2 (GOES 15)        
1 36411U 10008A   25125.92870416  .00000029  00000+0  00000+0 0  9995
2 36411   0.2207  85.9273 0001673 181.4339 352.5756  1.00276257 55551
COMS 1                  
1 36744U 10032A   25125.90883747 -.00000349  00000+0  00000+0 0  9996
2 36744   3.7651  80.4763 0000953 312.6793 286.1796  1.00271523 47005
FENGYUN 3B              
1 37214U 10059A   25126.23306897  .00000118  00000+0  84944-4 0  9998
2 37214  99.0159 164.2801 0021062 258.6756 176.7777 14.14721696749928
SUOMI NPP               
1 37849U 11061A   25126.14486394  .00000153  00000+0  93379-4 0  9998
2 37849  98.7561  65.7959 0002472  67.6289 292.5149 14.19528947700686
