[
  {
    "OBJECT_NAME": "NOAA 15",
    "OBJECT_ID": "1998-030A",
    "EPOCH": "2025-05-06T04:09:01.662624",
    "MEAN_MOTION": 14.26959392,
    "ECCENTRICITY": 0.0011521,
    "INCLINATION": 98.5378,
    "RA_OF_ASC_NODE": 152.1285,
    "ARG_OF_PERICENTER": 99.9137,
    "MEAN_ANOMALY": 260.3345,
    "EPHEMERIS_TYPE": 0,
    "CLASSIFICATION_TYPE": "U",
    "NORAD_CAT_ID": 25338,
    "ELEMENT_SET_NO": 999,
    "REV_AT_EPOCH": 40349,
    "BSTAR": 0.00015211,
    "MEAN_MOTION_DOT": 3.27e-06,
    "MEAN_MOTION_DDOT": 0
  },
  {
    "OBJECT_NAME": "DMSP 5D-3 F16 (USA 172)",
    "OBJECT_ID": "2003-048A",
    "EPOCH": "2025-05-06T04:49:42.159360",
    "MEAN_MOTION": 14.14347602,
    "ECCENTRICITY": 0.0006571,
    "INCLINATION": 99.0146,
    "RA_OF_ASC_NODE": 141.7238,
    "ARG_OF_PERICENTER": 211.2049,
    "MEAN_ANOMALY": 226.4303,
    "EPHEMERIS_TYPE": 0,
    "CLASSIFICATION_TYPE": "U",
    "NORAD_CAT_ID": 28054,
    "ELEMENT_SET_NO": 999,
    "REV_AT_EPOCH": 11193,
    "BSTAR": 0.0001129,
    "MEAN_MOTION_DOT": 1.7e-06,
    "MEAN_MOTION_DDOT": 0
  },
  {
    "OBJECT_NAME": "NOAA 18",
    "OBJECT_ID": "2005-018A",
    "EPOCH": "2025-05-06T05:20:32.392896",
    "MEAN_MOTION": 14.13592221,
    "ECCENTRICITY": 0.0013528,
    "INCLINATION": 98.8421,
    "RA_OF_ASC_NODE": 206.0848,
    "ARG_OF_PERICENTER": 223.2053,
    "MEAN_ANOMALY": 136.8059,
    "EPHEMERIS_TYPE": 0,
    "CLASSIFICATION_TYPE": "U",
    "NORAD_CAT_ID": 28654,
    "ELEMENT_SET_NO": 999,
    "REV_AT_EPOCH": 2889,
    "BSTAR": 0.00017879,
    "MEAN_MOTION_DOT": 2.93e-06,
    "MEAN_MOTION_DDOT": 0
  },
  {
    "OBJECT_NAME": "METEOSAT-9 (MSG-2)",
    "OBJECT_ID": "2005-049B",
    "EPOCH": "2025-05-06T00:03:36.742176",
    "MEAN_MOTION": 1.00278931,
    "ECCENTRICITY": 9.95e-05,
    "INCLINATION": 8.4345,
    "RA_OF_ASC_NODE": 58.0325,
    "ARG_OF_PERICENTER": 358.8502,
    "MEAN_ANOMALY": 213.945,
    "EPHEMERIS_TYPE": 0,
    "CLASSIFICATION_TYPE": "U",
    "NORAD_CAT_ID": 28912,
    "ELEMENT_SET_NO": 999,
    "REV_AT_EPOCH": 7099,
    "BSTAR": 0,
    "MEAN_MOTION_DOT": 1.21e-06,
    "MEAN_MOTION_DDOT": 0
  },
  {
    "OBJECT_NAME": "EWS-G1 (GOES 13)",
    "OBJECT_ID": "2006-018A",
    "EPOCH": "2025-05-05T10:05:50.457696",
    "MEAN_MOTION": 0.98816422,
    "ECCENTRICITY": 0.0064166,
    "INCLINATION": 3.4729,
    "RA_OF_ASC_NODE": 81.3827,
    "ARG_OF_PERICENTER": 264.9182,
    "MEAN_ANOMALY": 94.2885,
    "EPHEMERIS_TYPE": 0,
    "CLASSIFICATION_TYPE": "U",
    "NORAD_CAT_ID": 29155,
    "ELEMENT_SET_NO": 999,
    "REV_AT_EPOCH": 6935,
    "BSTAR": 0,
    "MEAN_MOTION_DOT": 5.9e-07,
    "MEAN_MOTION_DDOT": 0
  },
  {
    "OBJECT_NAME": "DMSP 5D-3 F17 (USA 191)",
    "OBJECT_ID": "2006-050A",
    "EPOCH": "2025-05-06T04:50:01.357440",
    "MEAN_MOTION": 14.14825632,
    "ECCENTRICITY": 0.0010962,
    "INCLINATION": 98.7398,
    "RA_OF_ASC_NODE": 136.1265,
    "ARG_OF_PERICENTER": 133.3875,
    "MEAN_ANOMALY": 226.8214,
    "EPHEMERIS_TYPE": 0,
    "CLASSIFICATION_TYPE": "U",
    "NORAD_CAT_ID": 29522,
    "ELEMENT_SET_NO": 999,
    "REV_AT_EPOCH": 95486,
    "BSTAR": 0.00013124,
    "MEAN_MOTION_DOT": 2.1e-06,
    "MEAN_MOTION_DDOT": 0
  },
  {
    "OBJECT_NAME": "FENGYUN 3A",
    "OBJECT_ID": "2008-026A",
    "EPOCH": "2025-05-05T20:16:16.650624",
    "MEAN_MOTION": 14.19433311,
    "ECCENTRICITY": 0.00079,
    "INCLINATION": 98.6456,
    "RA_OF_ASC_NODE": 70.3944,
    "ARG_OF_PERICENTER": 216.3621,
    "MEAN_ANOMALY": 143.7019,
    "EPHEMERIS_TYPE": 0,
    "CLASSIFICATION_TYPE": "U",
    "NORAD_CAT_ID": 32958,
    "ELEMENT_SET_NO": 999,
    "REV_AT_EPOCH": 87761,
    "BSTAR": 0.00011349,
    "MEAN_MOTION_DOT": 1.96e-06,
    "MEAN_MOTION_DDOT": 0
  },
  {
    "OBJECT_NAME": "NOAA 19",
    "OBJECT_ID": "2009-005A",
    "EPOCH": "2025-05-06T03:39:52.458336",
    "MEAN_MOTION": 14.13356229,
    "ECCENTRICITY": 0.0014858,
    "INCLINATION": 98.9989,
    "RA_OF_ASC_NODE": 190.6611,
    "ARG_OF_PERICENTER": 101.1747,
    "MEAN_ANOMALY": 259.1096,
    "EPHEMERIS_TYPE": 0,
    "CLASSIFICATION_TYPE": "U",
    "NORAD_CAT_ID": 33591,
    "ELEMENT_SET_NO": 999,
    "REV_AT_EPOCH": 83724,
    "BSTAR": 0.00015729,
    "MEAN_MOTION_DOT": 2.5e-06,
    "MEAN_MOTION_DDOT": 0
  },
  {
    "OBJECT_NAME": "GOES 14",
    "OBJECT_ID": "2009-033A",
    "EPOCH": "2025-05-06T04:59:38.859360",
    "MEAN_MOTION": 1.00271685,
    "ECCENTRICITY": 8.31e-05,
    "INCLINATION": 0.6283,
    "RA_OF_ASC_NODE": 88.4013,
    "ARG_OF_PERICENTER": 43.4609,
    "MEAN_ANOMALY": 58.9771,
    "EPHEMERIS_TYPE": 0,
    "CLASSIFICATION_TYPE": "U",
    "NORAD_CAT_ID": 35491,
    "ELEMENT_SET_NO": 999,
    "REV_AT_EPOCH": 5807,
    "BSTAR": 0,
    "MEAN_MOTION_DOT": -7.3e-07,
    "MEAN_MOTION_DDOT": 0
  },
  {
    "OBJECT_NAME": "DMSP 5D-3 F18 (USA 210)",
    "OBJECT_ID": "2009-057A",
    "EPOCH": "2025-05-06T03:06:32.354496",
    "MEAN_MOTION": 14.1460871,
    "ECCENTRICITY": 0.0010619,
    "INCLINATION": 98.8577,
    "RA_OF_ASC_NODE": 103.9803,
    "ARG_OF_PERICENTER": 334.2952,
    "MEAN_ANOMALY": 25.7692,
    "EPHEMERIS_TYPE": 0,
    "CLASSIFICATION_TYPE": "U",
    "NORAD_CAT_ID": 35951,
    "ELEMENT_SET_NO": 999,
    "REV_AT_EPOCH": 80201,
    "BSTAR": 0.00024305,
    "MEAN_MOTION_DOT": 4.23e-06,
    "MEAN_MOTION_DDOT": 0
  },
  {
    "OBJECT_NAME": "EWS-G2 (GOES 15)",
    "OBJECT_ID": "2010-008A",
    "EPOCH": "2025-05-05T22:17:20.039424",
    "MEAN_MOTION": 1.00276257,
    "ECCENTRICITY": 0.0001673,
    "INCLINATION": 0.2207,
    "RA_OF_ASC_NODE": 85.9273,
    "ARG_OF_PERICENTER": 181.4339,
    "MEAN_ANOMALY": 352.5756,
    "EPHEMERIS_TYPE": 0,
    "CLASSIFICATION_TYPE": "U",
    "NORAD_CAT_ID": 36411,
    "ELEMENT_SET_NO": 999,
    "REV_AT_EPOCH": 5555,
    "BSTAR": 0,
    "MEAN_MOTION_DOT": 2.9e-07,
    "MEAN_MOTION_DDOT": 0
  },
  {
    "OBJECT_NAME": "COMS 1",
    "OBJECT_ID": "2010-032A",
    "EPOCH": "2025-05-05T21:48:43.557408",
    "MEAN_MOTION": 1.00271523,
    "ECCENTRICITY": 9.53e-05,
    "INCLINATION": 3.7651,
    "RA_OF_ASC_NODE": 80.4763,
    "ARG_OF_PERICENTER": 312.6793,
    "MEAN_ANOMALY": 286.1796,
    "EPHEMERIS_TYPE": 0,
    "CLASSIFICATION_TYPE": "U",
    "NORAD_CAT_ID": 36744,
    "ELEMENT_SET_NO": 999,
    "REV_AT_EPOCH": 4700,
    "BSTAR": 0,
    "MEAN_MOTION_DOT": -3.49e-06,
    "MEAN_MOTION_DDOT": 0
  },
  {
    "OBJECT_NAME": "FENGYUN 3B",
    "OBJECT_ID": "2010-059A",
    "EPOCH": "2025-05-06T05:35:37.159008",
    "MEAN_MOTION": 14.14721696,
    "ECCENTRICITY": 0.0021062,
    "INCLINATION": 99.0159,
    "RA_OF_ASC_NODE": 164.2801,
    "ARG_OF_PERICENTER": 258.6756,
    "MEAN_ANOMALY": 176.7777,
    "EPHEMERIS_TYPE": 0,
    "CLASSIFICATION_TYPE": "U",
    "NORAD_CAT_ID": 37214,
    "ELEMENT_SET_NO": 999,
    "REV_AT_EPOCH": 74992,
    "BSTAR": 8.4944e-05,
    "MEAN_MOTION_DOT": 1.18e-06,
    "MEAN_MOTION_DDOT": 0
  },
  {
    "OBJECT_NAME": "SUOMI NPP",
    "OBJECT_ID": "2011-061A",
    "EPOCH": "2025-05-06T03:28:36.244416",
    "MEAN_MOTION": 14.19528947,
    "ECCENTRICITY": 0.0002472,
    "INCLINATION": 98.7561,
    "RA_OF_ASC_NODE": 65.7959,
    "ARG_OF_PERICENTER": 67.6289,
    "MEAN_ANOMALY": 292.5149,
    "EPHEMERIS_TYPE": 0,
    "CLASSIFICATION_TYPE": "U",
    "NORAD_CAT_ID": 37849,
    "ELEMENT_SET_NO": 999,
    "REV_AT_EPOCH": 70068,
    "BSTAR": 9.3379e-05,
    "MEAN_MOTION_DOT": 1.53e-06,
    "MEAN_MOTION_DDOT": 0
  }
]